start=new Date('2022-06-21T00:00:00.000Z').valueOf();
sats=[{"SEMIMAJOR_AXIS":"6727.808","GP_ID":"206516540","OBJECT_ID":"2022-052AW","APOAPSIS":"351.157","PERIAPSIS":"348.188","TLE_LINE2":"2 52642  53.2147 256.0752 0002206  24.6051  45.7716 15.73230748  1302","SITE":"AFETR","CENTER_NAME":"EARTH","OBJECT_TYPE":"PAYLOAD","EPHEMERIS_TYPE":"0","FILE":"3498404","MEAN_MOTION":"15.73230748","LAUNCH_DATE":"2022-05-14","NORAD_CAT_ID":"52642","RA_OF_ASC_NODE":"256.0752","MEAN_MOTION_DDOT":"0.0000000000000","EPOCH":"2022-06-20T22:00:00.999936","MEAN_ELEMENT_THEORY":"SGP4","BSTAR":"-0.00064787000000","COUNTRY_CODE":"US","REF_FRAME":"TEME","TLE_LINE1":"1 52642U 22052AW  22171.91667824 -.00090702  00000-0 -64787-3 0  9991","INCLINATION":"53.2147","RCS_SIZE":"LARGE","PERIOD":"91.531","ELEMENT_SET_NO":"999","TIME_SYSTEM":"UTC","ARG_OF_PERICENTER":"24.6051","DECAY_DATE":null,"ECCENTRICITY":"0.00022060","MEAN_ANOMALY":"45.7716","CLASSIFICATION_TYPE":"U","REV_AT_EPOCH":"130","MEAN_MOTION_DOT":"-0.00090702","OBJECT_NAME":"STARLINK-3971"},{"LAUNCH_DATE":"2022-05-14","MEAN_MOTION_DDOT":"0.0000000000000","NORAD_CAT_ID":"52643","RA_OF_ASC_NODE":"256.0674","EPOCH":"2022-06-20T22:00:00.999936","MEAN_ELEMENT_THEORY":"SGP4","APOAPSIS":"351.292","GP_ID":"206516723","SEMIMAJOR_AXIS":"6727.916","OBJECT_ID":"2022-052AX","PERIAPSIS":"348.270","SITE":"AFETR","TLE_LINE2":"2 52643  53.2146 256.0674 0002246  24.6967  49.2912 15.73192581  1304","CENTER_NAME":"EARTH","OBJECT_TYPE":"PAYLOAD","EPHEMERIS_TYPE":"0","MEAN_MOTION":"15.73192581","FILE":"3498404","MEAN_ANOMALY":"49.2912","ECCENTRICITY":"0.00022460","CLASSIFICATION_TYPE":"U","MEAN_MOTION_DOT":"0.00020094","OBJECT_NAME":"STARLINK-3963","REV_AT_EPOCH":"130","REF_FRAME":"TEME","BSTAR":"0.00014729000000","COUNTRY_CODE":"US","TLE_LINE1":"1 52643U 22052AX  22171.91667824  .00020094  00000-0  14729-3 0  9998","PERIOD":"91.534","ELEMENT_SET_NO":"999","INCLINATION":"53.2146","RCS_SIZE":"LARGE","DECAY_DATE":null,"TIME_SYSTEM":"UTC","ARG_OF_PERICENTER":"24.6967"},{"EPOCH":"2022-06-20T22:00:00.999936","MEAN_ELEMENT_THEORY":"SGP4","MEAN_MOTION_DDOT":"0.0000000000000","NORAD_CAT_ID":"52644","RA_OF_ASC_NODE":"256.0740","LAUNCH_DATE":"2022-05-14","MEAN_MOTION":"15.73208012","FILE":"3498404","EPHEMERIS_TYPE":"0","OBJECT_TYPE":"PAYLOAD","CENTER_NAME":"EARTH","TLE_LINE2":"2 52644  53.2130 256.0740 0002557  19.7889  51.1383 15.73208012  1306","SITE":"AFETR","PERIAPSIS":"348.017","APOAPSIS":"351.458","OBJECT_ID":"2022-052AY","SEMIMAJOR_AXIS":"6727.872","GP_ID":"206516281","OBJECT_NAME":"STARLINK-3985","MEAN_MOTION_DOT":"0.00021930","REV_AT_EPOCH":"130","CLASSIFICATION_TYPE":"U","ECCENTRICITY":"0.00025570","MEAN_ANOMALY":"51.1383","DECAY_DATE":null,"ARG_OF_PERICENTER":"19.7889","TIME_SYSTEM":"UTC","ELEMENT_SET_NO":"999","PERIOD":"91.533","RCS_SIZE":"LARGE","INCLINATION":"53.2130","TLE_LINE1":"1 52644U 22052AY  22171.91667824  .00021930  00000-0  16020-3 0  9995","REF_FRAME":"TEME","COUNTRY_CODE":"US","BSTAR":"0.00016020000000"},{"INCLINATION":"53.2143","RCS_SIZE":"LARGE","PERIOD":"91.534","ELEMENT_SET_NO":"999","TIME_SYSTEM":"UTC","ARG_OF_PERICENTER":"19.2296","DECAY_DATE":null,"BSTAR":"0.00016007000000","COUNTRY_CODE":"US","REF_FRAME":"TEME","TLE_LINE1":"1 52645U 22052AZ  22171.91667824  .00021894  00000-0  16007-3 0  9990","REV_AT_EPOCH":"130","MEAN_MOTION_DOT":"0.00021894","OBJECT_NAME":"STARLINK-3973","MEAN_ANOMALY":"55.3286","ECCENTRICITY":"0.00023320","CLASSIFICATION_TYPE":"U","OBJECT_TYPE":"PAYLOAD","EPHEMERIS_TYPE":"0","MEAN_MOTION":"15.73190072","FILE":"3498404","SEMIMAJOR_AXIS":"6727.923","GP_ID":"206516092","OBJECT_ID":"2022-052AZ","APOAPSIS":"351.357","PERIAPSIS":"348.220","CENTER_NAME":"EARTH","TLE_LINE2":"2 52645  53.2143 256.0656 0002332  19.2296  55.3286 15.73190072  1309","SITE":"AFETR","EPOCH":"2022-06-20T22:00:00.999936","MEAN_ELEMENT_THEORY":"SGP4","LAUNCH_DATE":"2022-05-14","NORAD_CAT_ID":"52645","RA_OF_ASC_NODE":"256.0656","MEAN_MOTION_DDOT":"0.0000000000000"},{"TLE_LINE1":"1 52646U 22052BA  22171.91667824 -.00080113  00000-0 -57107-3 0  9998","REF_FRAME":"TEME","BSTAR":"-0.00057107000000","COUNTRY_CODE":"US","DECAY_DATE":null,"TIME_SYSTEM":"UTC","ARG_OF_PERICENTER":"22.1976","PERIOD":"91.532","ELEMENT_SET_NO":"999","INCLINATION":"53.2137","RCS_SIZE":"LARGE","MEAN_ANOMALY":"50.5619","ECCENTRICITY":"0.00021830","CLASSIFICATION_TYPE":"U","MEAN_MOTION_DOT":"-0.00080113","OBJECT_NAME":"STARLINK-3832","REV_AT_EPOCH":"130","PERIAPSIS":"348.212","TLE_LINE2":"2 52646  53.2137 256.0698 0002183  22.1976  50.5619 15.73227953  1307","SITE":"AFETR","CENTER_NAME":"EARTH","APOAPSIS":"351.149","SEMIMAJOR_AXIS":"6727.815","GP_ID":"206516194","OBJECT_ID":"2022-052BA","FILE":"3498404","MEAN_MOTION":"15.73227953","OBJECT_TYPE":"PAYLOAD","EPHEMERIS_TYPE":"0","MEAN_MOTION_DDOT":"0.0000000000000","NORAD_CAT_ID":"52646","RA_OF_ASC_NODE":"256.0698","LAUNCH_DATE":"2022-05-14","EPOCH":"2022-06-20T22:00:00.999936","MEAN_ELEMENT_THEORY":"SGP4"},{"LAUNCH_DATE":"2022-05-14","MEAN_MOTION_DDOT":"0.0000000000000","NORAD_CAT_ID":"52647","RA_OF_ASC_NODE":"256.0630","EPOCH":"2022-06-20T22:00:00.999936","MEAN_ELEMENT_THEORY":"SGP4","APOAPSIS":"351.223","SEMIMAJOR_AXIS":"6727.830","GP_ID":"206516789","OBJECT_ID":"2022-052BB","PERIAPSIS":"348.167","TLE_LINE2":"2 52647  53.2144 256.0630 0002271  20.6410  55.0608 15.73222848  1302","CENTER_NAME":"EARTH","SITE":"AFETR","OBJECT_TYPE":"PAYLOAD","EPHEMERIS_TYPE":"0","FILE":"3498404","MEAN_MOTION":"15.73222848","MEAN_ANOMALY":"55.0608","ECCENTRICITY":"0.00022710","CLASSIFICATION_TYPE":"U","MEAN_MOTION_DOT":"0.00007434","OBJECT_NAME":"STARLINK-3846","REV_AT_EPOCH":"130","REF_FRAME":"TEME","BSTAR":"0.00005729000000","COUNTRY_CODE":"US","TLE_LINE1":"1 52647U 22052BB  22171.91667824  .00007434  00000-0  57290-4 0  9996","PERIOD":"91.532","ELEMENT_SET_NO":"999","INCLINATION":"53.2144","RCS_SIZE":"LARGE","DECAY_DATE":null,"TIME_SYSTEM":"UTC","ARG_OF_PERICENTER":"20.6410"},{"ECCENTRICITY":"0.00020980","MEAN_ANOMALY":"49.8977","CLASSIFICATION_TYPE":"U","MEAN_MOTION_DOT":"-0.00011170","OBJECT_NAME":"STARLINK-3854","REV_AT_EPOCH":"130","REF_FRAME":"TEME","BSTAR":"-0.00007532300000","COUNTRY_CODE":"US","TLE_LINE1":"1 52648U 22052BC  22171.91667824 -.00011170  00000-0 -75323-4 0  9998","PERIOD":"91.534","ELEMENT_SET_NO":"999","INCLINATION":"53.2129","RCS_SIZE":"LARGE","DECAY_DATE":null,"TIME_SYSTEM":"UTC","ARG_OF_PERICENTER":"23.4965","LAUNCH_DATE":"2022-05-14","MEAN_MOTION_DDOT":"0.0000000000000","NORAD_CAT_ID":"52648","RA_OF_ASC_NODE":"256.0689","EPOCH":"2022-06-20T22:00:00.999936","MEAN_ELEMENT_THEORY":"SGP4","APOAPSIS":"351.230","GP_ID":"206516629","SEMIMAJOR_AXIS":"6727.954","OBJECT_ID":"2022-052BC","PERIAPSIS":"348.407","CENTER_NAME":"EARTH","TLE_LINE2":"2 52648  53.2129 256.0689 0002098  23.4965  49.8977 15.73179440  1302","SITE":"AFETR","OBJECT_TYPE":"PAYLOAD","EPHEMERIS_TYPE":"0","MEAN_MOTION":"15.73179440","FILE":"3498404"},{"MEAN_ELEMENT_THEORY":"SGP4","EPOCH":"2022-06-20T22:00:00.999936","MEAN_MOTION_DDOT":"0.0000000000000","NORAD_CAT_ID":"52649","RA_OF_ASC_NODE":"256.0644","LAUNCH_DATE":"2022-05-14","MEAN_MOTION":"15.73238304","FILE":"3498404","EPHEMERIS_TYPE":"0","OBJECT_TYPE":"PAYLOAD","SITE":"AFETR","TLE_LINE2":"2 52649  53.2142 256.0644 0002614  13.4908  61.6779 15.73238304  1306","CENTER_NAME":"EARTH","PERIAPSIS":"347.892","APOAPSIS":"351.410","OBJECT_ID":"2022-052BD","SEMIMAJOR_AXIS":"6727.786","GP_ID":"206516439","OBJECT_NAME":"STARLINK-3868","MEAN_MOTION_DOT":"-0.00033911","REV_AT_EPOCH":"130","CLASSIFICATION_TYPE":"U","ECCENTRICITY":"0.00026140","MEAN_ANOMALY":"61.6779","DECAY_DATE":null,"ARG_OF_PERICENTER":"13.4908","TIME_SYSTEM":"UTC","ELEMENT_SET_NO":"999","PERIOD":"91.531","RCS_SIZE":"LARGE","INCLINATION":"53.2142","TLE_LINE1":"1 52649U 22052BD  22171.91667824 -.00033911  00000-0 -23772-3 0  9996","REF_FRAME":"TEME","COUNTRY_CODE":"US","BSTAR":"-0.00023772000000"},{"DECAY_DATE":null,"TIME_SYSTEM":"UTC","ARG_OF_PERICENTER":"26.3259","PERIOD":"91.536","ELEMENT_SET_NO":"999","INCLINATION":"53.2159","RCS_SIZE":"LARGE","TLE_LINE1":"1 52650U 22052BE  22171.91667824 -.00012435  00000-0 -84445-4 0  9991","REF_FRAME":"TEME","BSTAR":"-0.00008444500000","COUNTRY_CODE":"US","MEAN_MOTION_DOT":"-0.00012435","OBJECT_NAME":"STARLINK-3891","REV_AT_EPOCH":"130","ECCENTRICITY":"0.00022800","MEAN_ANOMALY":"49.9897","CLASSIFICATION_TYPE":"U","MEAN_MOTION":"15.73157854","FILE":"3498404","OBJECT_TYPE":"PAYLOAD","EPHEMERIS_TYPE":"0","PERIAPSIS":"348.346","TLE_LINE2":"2 52650  53.2159 256.0619 0002280  26.3259  49.9897 15.73157854  1309","CENTER_NAME":"EARTH","SITE":"AFETR","APOAPSIS":"351.414","SEMIMAJOR_AXIS":"6728.015","GP_ID":"206516541","OBJECT_ID":"2022-052BE","EPOCH":"2022-06-20T22:00:00.999936","MEAN_ELEMENT_THEORY":"SGP4","MEAN_MOTION_DDOT":"0.0000000000000","NORAD_CAT_ID":"52650","RA_OF_ASC_NODE":"256.0619","LAUNCH_DATE":"2022-05-14"},{"TLE_LINE1":"1 52656U 22053A   22171.91667824 -.00022006  00000-0 -38033-3 0  9994","COUNTRY_CODE":"US","BSTAR":"-0.00038033000000","REF_FRAME":"TEME","ARG_OF_PERICENTER":"74.3829","TIME_SYSTEM":"UTC","DECAY_DATE":null,"RCS_SIZE":"LARGE","INCLINATION":"53.2161","ELEMENT_SET_NO":"999","PERIOD":"92.908","CLASSIFICATION_TYPE":"U","ECCENTRICITY":"0.00016300","MEAN_ANOMALY":"110.5755","REV_AT_EPOCH":"130","OBJECT_NAME":"STARLINK-4004","MEAN_MOTION_DOT":"-0.00022006","SITE":"AFETR","TLE_LINE2":"2 52656  53.2161 133.5563 0001630  74.3829 110.5755 15.49922472  1306","CENTER_NAME":"EARTH","PERIAPSIS":"415.847","OBJECT_ID":"2022-053A","SEMIMAJOR_AXIS":"6795.090","GP_ID":"206516630","APOAPSIS":"418.062","MEAN_MOTION":"15.49922472","FILE":"3498404","EPHEMERIS_TYPE":"0","OBJECT_TYPE":"PAYLOAD","NORAD_CAT_ID":"52656","RA_OF_ASC_NODE":"133.5563","MEAN_MOTION_DDOT":"0.0000000000000","LAUNCH_DATE":"2022-05-18","EPOCH":"2022-06-20T22:00:00.999936","MEAN_ELEMENT_THEORY":"SGP4"}];
